Results
*******************************************************************************
 Revised: Aug 07, 2025              2004S29 / (Saturn)                      660

 Newly discovered irregular Saturnian satellite
*******************************************************************************


*******************************************************************************
Ephemeris / API_USER Wed Apr 22 06:57:23 2026 Pasadena, USA      / Horizons    
*******************************************************************************
Target body name: S2004_S29 (660)                 {source: sat456_merged_DE440}
Center body name: Earth (399)                     {source: sat456_merged_DE440}
Center-site name: GEOCENTRIC
*******************************************************************************
Start time      : A.D. 2020-Jan-01 00:00:00.0000 UT      
Stop  time      : A.D. 2020-Dec-20 00:00:00.0000 UT      
Step-size       : 1440 minutes
*******************************************************************************
Target pole/equ : undefined
Target radii    : undefined                                                    
Center geodetic : 0.0, 0.0, -6378.137             {E-lon(deg),Lat(deg),Alt(km)}
Center cylindric: 0.0, 0.0, 0.0                   {E-lon(deg),Dxy(km),Dz(km)}
Center pole/equ : ITRF93                          {East-longitude positive}
Center radii    : 6378.137, 6378.137, 6356.752 km {Equator_a, b, pole_c}       
Target primary  : Saturn
Vis. interferer : MOON (R_eq= 1737.400) km        {source: sat456_merged_DE440}
Rel. light bend : Sun                             {source: sat456_merged_DE440}
Rel. lght bnd GM: 1.3271E+11 km^3/s^2                                          
Atmos refraction: NO (AIRLESS)
RA format       : HMS
Time format     : CAL 
Calendar mode   : Mixed Julian/Gregorian
EOP file        : eop.260421.p260718                                           
EOP coverage    : DATA-BASED 1962-JAN-20 TO 2026-APR-21. PREDICTS-> 2026-JUL-17
Units conversion: 1 au= 149597870.700 km, c= 299792.458 km/s, 1 day= 86400.0 s 
Table cut-offs 1: Elevation (-90.0deg=NO ),Airmass (>38.000=NO), Daylight (NO )
Table cut-offs 2: Solar elongation (  0.0,180.0=NO ),Local Hour Angle( 0.0=NO )
Table cut-offs 3: RA/DEC angular rate (     0.0=NO )                           
**************************************************************************************************************************
 Date__(UT)__HR:MN     R.A._____(ICRF)_____DEC    APmag   S-brt             delta      deldot     S-O-T /r     S-T-O  Cnst
**************************************************************************************************************************
$$SOE
 2020-Jun-26 00:00     20 09 09.84 -20 00 22.5     n.a.    n.a.  9.24285812122792 -12.2447330  154.4437 /L    2.4775   Cap
 2020-Jun-27 00:00     20 08 55.15 -20 01 20.1     n.a.    n.a.  9.23591846676011 -11.7861115  155.4570 /L    2.3858   Cap
 2020-Jun-28 00:00     20 08 40.27 -20 02 18.2     n.a.    n.a.  9.22924472426098 -11.3239482  156.4710 /L    2.2932   Cap
 2020-Jun-29 00:00     20 08 25.18 -20 03 17.0     n.a.    n.a.  9.22283885887074 -10.8585157  157.4856 /L    2.1999   Cap
 2020-Jun-30 00:00     20 08 09.91 -20 04 16.3     n.a.    n.a.  9.21670268970979 -10.3900453  158.5008 /L    2.1058   Cap
 2020-Jul-01 00:00     20 07 54.45 -20 05 16.1     n.a.    n.a.  9.21083791661112  -9.9187175  159.5167 /L    2.0110   Cap
 2020-Jul-02 00:00     20 07 38.81 -20 06 16.4     n.a.    n.a.  9.20524615121946  -9.4446567  160.5331 /L    1.9154   Cap
 2020-Jul-03 00:00     20 07 23.01 -20 07 17.2     n.a.    n.a.  9.19992894949253  -8.9679321  161.5501 /L    1.8193   Cap
 2020-Jul-04 00:00     20 07 07.05 -20 08 18.4     n.a.    n.a.  9.19488784152687  -8.4885662  162.5677 /L    1.7225   Sgr
 2020-Jul-05 00:00     20 06 50.94 -20 09 20.0     n.a.    n.a.  9.19012435425355  -8.0065506  163.5858 /L    1.6251   Sgr
 2020-Jul-06 00:00     20 06 34.68 -20 10 21.9     n.a.    n.a.  9.18564002358085  -7.5218660  164.6045 /L    1.5271   Sgr
 2020-Jul-07 00:00     20 06 18.28 -20 11 24.3     n.a.    n.a.  9.18143639486369  -7.0345019  165.6238 /L    1.4286   Sgr
 2020-Jul-08 00:00     20 06 01.76 -20 12 26.9     n.a.    n.a.  9.17751501337625  -6.5444711  166.6436 /L    1.3296   Sgr
 2020-Jul-09 00:00     20 05 45.11 -20 13 29.8     n.a.    n.a.  9.17387740838134  -6.0518168  167.6640 /L    1.2301   Sgr
 2020-Jul-10 00:00     20 05 28.35 -20 14 33.0     n.a.    n.a.  9.17052507488973  -5.5566140  168.6849 /L    1.1302   Sgr
 2020-Jul-11 00:00     20 05 11.49 -20 15 36.4     n.a.    n.a.  9.16745945642271  -5.0589652  169.7064 /L    1.0299   Sgr
 2020-Jul-12 00:00     20 04 54.52 -20 16 40.1     n.a.    n.a.  9.16468193068069  -4.5589948  170.7283 /L    0.9292   Sgr
 2020-Jul-13 00:00     20 04 37.47 -20 17 43.9     n.a.    n.a.  9.16219379862523  -4.0568433  171.7507 /L    0.8281   Sgr
 2020-Jul-14 00:00     20 04 20.35 -20 18 47.8     n.a.    n.a.  9.15999627643518  -3.5526634  172.7735 /L    0.7268   Sgr
 2020-Jul-15 00:00     20 04 03.15 -20 19 51.9     n.a.    n.a.  9.15809048914405  -3.0466179  173.7968 /L    0.6252   Sgr
 2020-Jul-16 00:00     20 03 45.89 -20 20 56.1     n.a.    n.a.  9.15647746441509  -2.5388815  174.8205 /L    0.5234   Sgr
 2020-Jul-17 00:00     20 03 28.57 -20 22 00.3     n.a.    n.a.  9.15515812478341  -2.0296446  175.8445 /L    0.4213   Sgr
 2020-Jul-18 00:00     20 03 11.22 -20 23 04.6     n.a.    n.a.  9.15413327680601  -1.5191197  176.8688 /L    0.3192   Sgr
 2020-Jul-19 00:00     20 02 53.83 -20 24 08.8     n.a.    n.a.  9.15340359603697  -1.0075492  177.8934 /L    0.2169   Sgr
 2020-Jul-20 00:00     20 02 36.42 -20 25 13.1     n.a.    n.a.  9.15296960775221  -0.4952120  178.9181 /L    0.1145   Sgr
 2020-Jul-21 00:00     20 02 18.99 -20 26 17.3     n.a.    n.a.  9.15283166492628   0.0175744  179.9372 /L    0.0123   Sgr
 2020-Jul-22 00:00     20 02 01.56 -20 27 21.4     n.a.    n.a.  9.15298992680364   0.5304582  179.0309 /T    0.0904   Sgr
 2020-Jul-23 00:00     20 01 44.13 -20 28 25.4     n.a.    n.a.  9.15344434276176   1.0430672  178.0058 /T    0.1928   Sgr
 2020-Jul-24 00:00     20 01 26.72 -20 29 29.2     n.a.    n.a.  9.15419464611247   1.5550292  176.9805 /T    0.2951   Sgr
 2020-Jul-25 00:00     20 01 09.33 -20 30 32.9     n.a.    n.a.  9.15524036061195   2.0659945  175.9552 /T    0.3973   Sgr
 2020-Jul-26 00:00     20 00 51.98 -20 31 36.3     n.a.    n.a.  9.15658081943146   2.5756555  174.9299 /T    0.4994   Sgr
 2020-Jul-27 00:00     20 00 34.68 -20 32 39.6     n.a.    n.a.  9.15821519345526   3.0837591  173.9047 /T    0.6013   Sgr
 2020-Jul-28 00:00     20 00 17.42 -20 33 42.6     n.a.    n.a.  9.16014252432744   3.5901109  172.8796 /T    0.7029   Sgr
 2020-Jul-29 00:00     20 00 00.23 -20 34 45.3     n.a.    n.a.  9.16236175784564   4.0945727  171.8546 /T    0.8043   Sgr
 2020-Jul-30 00:00     19 59 43.11 -20 35 47.7     n.a.    n.a.  9.16487177442800   4.5970547  170.8298 /T    0.9054   Sgr
 2020-Jul-31 00:00     19 59 26.06 -20 36 49.8     n.a.    n.a.  9.16767141456923   5.0975066  169.8052 /T    1.0061   Sgr
 2020-Aug-01 00:00     19 59 09.11 -20 37 51.5     n.a.    n.a.  9.17075949797766   5.5959048  168.7808 /T    1.1065   Sgr
 2020-Aug-02 00:00     19 58 52.25 -20 38 52.8     n.a.    n.a.  9.17413483551841   6.0922398  167.7566 /T    1.2065   Sgr
 2020-Aug-03 00:00     19 58 35.50 -20 39 53.7     n.a.    n.a.  9.17779623353183   6.5865034  166.7326 /T    1.3060   Sgr
 2020-Aug-04 00:00     19 58 18.85 -20 40 54.2     n.a.    n.a.  9.18174249080885   7.0786760  165.7088 /T    1.4051   Sgr
 2020-Aug-05 00:00     19 58 02.33 -20 41 54.3     n.a.    n.a.  9.18597238943697   7.5687180  164.6852 /T    1.5037   Sgr
 2020-Aug-06 00:00     19 57 45.94 -20 42 53.8     n.a.    n.a.  9.19048468156232   8.0565649  163.6619 /T    1.6018   Sgr
 2020-Aug-07 00:00     19 57 29.69 -20 43 52.9     n.a.    n.a.  9.19527807449687   8.5421261  162.6388 /T    1.6993   Sgr
 2020-Aug-08 00:00     19 57 13.58 -20 44 51.5     n.a.    n.a.  9.20035121638954   9.0252880  161.6160 /T    1.7962   Sgr
 2020-Aug-09 00:00     19 56 57.63 -20 45 49.5     n.a.    n.a.  9.20570268399686   9.5059178  160.5934 /T    1.8925   Sgr
 2020-Aug-10 00:00     19 56 41.84 -20 46 47.0     n.a.    n.a.  9.21133097319813   9.9838689  159.5712 /T    1.9881   Sgr
 2020-Aug-11 00:00     19 56 26.22 -20 47 43.8     n.a.    n.a.  9.21723449204258  10.4589843  158.5492 /T    2.0831   Sgr
 2020-Aug-12 00:00     19 56 10.78 -20 48 40.1     n.a.    n.a.  9.22341155550972  10.9310989  157.5276 /T    2.1773   Sgr
 2020-Aug-13 00:00     19 55 55.52 -20 49 35.8     n.a.    n.a.  9.22986038063446  11.4000383  156.5064 /T    2.2707   Sgr
 2020-Aug-14 00:00     19 55 40.46 -20 50 30.8     n.a.    n.a.  9.23657908041429  11.8656156  155.4855 /T    2.3634   Sgr
 2020-Aug-15 00:00     19 55 25.61 -20 51 25.1     n.a.    n.a.  9.24356565484999  12.3276253  154.4650 /T    2.4552   Sgr
 2020-Aug-16 00:00     19 55 10.96 -20 52 18.8     n.a.    n.a.  9.25081797775221  12.7858345  153.4450 /T    2.5462   Sgr
 2020-Aug-17 00:00     19 54 56.54 -20 53 11.8     n.a.    n.a.  9.25833377884628  13.2399761  152.4255 /T    2.6363   Sgr
 2020-Aug-18 00:00     19 54 42.34 -20 54 04.0     n.a.    n.a.  9.26611062245059  13.6897445  151.4065 /T    2.7255   Sgr
 2020-Aug-19 00:00     19 54 28.38 -20 54 55.5     n.a.    n.a.  9.27414588647940  14.1348015  150.3880 /T    2.8138   Sgr
 2020-Aug-20 00:00     19 54 14.67 -20 55 46.3     n.a.    n.a.  9.28243674786972  14.5747932  149.3701 /T    2.9010   Sgr
 2020-Aug-21 00:00     19 54 01.20 -20 56 36.2     n.a.    n.a.  9.29098018116216  15.0093778  148.3529 /T    2.9873   Sgr
 2020-Aug-22 00:00     19 53 48.00 -20 57 25.4     n.a.    n.a.  9.29977297449467  15.4382567  147.3364 /T    3.0725   Sgr
 2020-Aug-23 00:00     19 53 35.07 -20 58 13.8     n.a.    n.a.  9.30881176205504  15.8611983  146.3206 /T    3.1566   Sgr
